EXPRESS-AT2             
1 39613U 14010B   19106.88494979 -.00000303  00000-0  00000-0 0  9990
2 39613   0.0233 313.4627 0000497 150.5307 199.1577  1.00272894 18268
AMAZONAS 4A             
1 39616U 14011A   19106.84229145 -.00000273  00000-0  00000-0 0  9997
2 39616   0.0576  56.1881 0003755 333.1674  44.5519  1.00264892 18437
ASTRA 5B                
1 39617U 14011B   19106.86331528  .00000133  00000-0  00000-0 0  9993
2 39617   0.0212  85.0656 0003699 303.3683 158.5405  1.00269868 18418
IRNSS-1B                
1 39635U 14017A   19106.58075826  .00000062  00000-0  00000-0 0  9995
2 39635  28.6201 284.1874 0020259 176.3756   7.9307  1.00272005 18545
LUCH 5V                 
1 39727U 14023A   19106.94173906 -.00000293  00000-0  00000-0 0  9999
2 39727   1.3463 302.7671 0003593 101.7598 234.0170  1.00273056536267
KAZSAT-3                
1 39728U 14023B   19106.94993209  .00000039  00000-0  00000-0 0  9993
2 39728   0.0010 197.5301 0000516 238.0047 169.7203  1.00270162 16198
EUTELSAT 3B             
1 39773U 14030A   19106.84979887 -.00000002  00000-0  00000-0 0  9997
2 39773   0.0843 329.0083 0001902 187.5409 357.1531  1.00271267 17815
ASIASAT 8               
1 40107U 14046A   19106.85624918 -.00000055  00000-0  00000-0 0  9998
2 40107   0.0069 112.0168 0002350 270.3273 126.7128  1.00271282 75903
ASIASAT 6               
1 40141U 14052A   19106.86418198 -.00000384  00000-0  00000-0 0  9990
2 40141   0.0112 255.9771 0000949 137.3112 242.4315  1.00270664 16804
OPTUS 10                
1 40146U 14054A   19106.57151414 -.00000169  00000-0  00000-0 0  9991
2 40146   0.0873  35.5362 0002046   3.4517 167.1727  1.00271611 16862
MEASAT-3B               
1 40147U 14054B   19106.87526660 -.00000264  00000-0  00000-0 0  9990
2 40147   0.0309  61.2642 0002596 318.3929 231.6585  1.00272706 16651
LUCH (OLYMP)            
1 40258U 14058A   19106.79719049  .00000028  00000-0  00000-0 0  9990
2 40258   0.0104 229.9321 0000765 163.5916 158.0326  1.00272045 16680
HIMAWARI-8              
1 40267U 14060A   19106.88512427 -.00000297  00000-0  00000-0 0  9993
2 40267   0.0249 131.7765 0000812 243.4210 288.8397  1.00271728 16508
IRNSS-1C                
1 40269U 14061A   19106.87360913 -.00000184  00000-0  00000-0 0  9991
2 40269   1.9995 213.1682 0017893   9.5517  19.6280  1.00271617 16439
INTELSAT 30 (IS-30)     
1 40271U 14062A   19106.40733333 -.00000171  00000-0  00000-0 0  9990
2 40271   0.0201 248.4154 0001211 223.1734 144.2469  1.00270058 16385
ARSAT 1                 
1 40272U 14062B   19106.84272762 -.00000281  00000-0  00000-0 0  9995
2 40272   0.0152 203.7980 0001331 186.9802  45.4692  1.00270069 16637
EXPRESS-AM6             
1 40277U 14064A   19106.73618571  .00000078  00000-0  00000-0 0  9995
2 40277   0.0245 303.5964 0001699 155.8033  63.2008  1.00260738 16411
GSAT-16                 
1 40332U 14078A   19106.50905038  .00000063  00000-0  00000-0 0  9998
2 40332   0.0759  91.5141 0006563 335.7875  15.3699  1.00271493 15864
DIRECTV 14              
1 40333U 14078B   19106.83714453 -.00000146  00000-0  00000-0 0  9997
2 40333   0.0214 225.0150 0000181 239.4299 302.3655  1.00268062 15886
YAMAL 401               
1 40345U 14082A   19106.87500490 -.00000250  00000-0  00000-0 0  9999
2 40345   0.0176 179.2594 0000305 250.6062 179.7882  1.00271360 15668
ASTRA 2G                
1 40364U 14089A   19106.86270463  .00000128  00000-0  00000-0 0  9993
2 40364   0.0239  36.0595 0004672   9.9742 137.4403  1.00273024 15716
FENGYUN 2G              
1 40367U 14090A   19106.99547591 -.00000322  00000-0  00000-0 0  9998
2 40367   1.0932 102.3429 0001666 305.3958 255.0524  1.00270891 15782
MUOS-3                  
1 40374U 15002A   19106.85389382 -.00000153  00000-0  00000-0 0  9999
2 40374   3.2788 338.2187 0052610 176.5604 341.8493  1.00272148 15343
INMARSAT 5-F2           
1 40384U 15005A   19106.84604258 -.00000307  00000-0  00000-0 0  9995
2 40384   0.0195 211.9424 0000471 143.4871  98.8317  1.00268599 14741
ABS-3A                  
1 40424U 15010A   19106.35394497 -.00000047  00000-0  00000-0 0  9994
2 40424   0.0121 146.2267 0001940 169.9430  12.4740  1.00272215 15154
EUTELSAT 115 WEST B     
1 40425U 15010B   19106.69050101 -.00000046  00000-0  00000-0 0  9992
2 40425   0.0153  72.0606 0000227  92.1941 173.9556  1.00271834 15170
EXPRESS-AM7             
1 40505U 15012A   19106.79317763  .00000129  00000-0  00000-0 0  9995
2 40505   0.0002 227.2793 0002920 130.9999 171.8795  1.00271236 15100
IRNSS-1D                
1 40547U 15018A   19106.85657812 -.00000322  00000-0  00000-0 0  9992
2 40547  29.3512 284.2869 0022757 182.1354 159.1163  1.00273812 14982
BD-17                   
1 40549U 15019A   19106.31162763 -.00000162  00000-0  00000+0 0  9993
2 40549  53.6443 326.1230 0037459 187.6232 258.6127  1.00266526 14827
THOR 7                  
1 40613U 15022A   19106.85685983 -.00000030  00000-0  00000-0 0  9997
2 40613   0.0094 196.4807 0002733 186.1003 129.9237  1.00272498 14571
TURKMENALEM52E/MONACOSAT
1 40617U 15023A   19106.86741537  .00000082  00000-0  00000-0 0  9997
2 40617   0.0118 200.0393 0002986 202.5219 166.4241  1.00270075 14587
DIRECTV 15              
1 40663U 15026A   19106.56819247 -.00000136  00000-0  00000-0 0  9993
2 40663   0.0149 158.6591 0000189 101.8070  47.6381  1.00269354 14267
SKY MEXICO-1            
1 40664U 15026B   19106.84133185 -.00000256  00000-0  00000-0 0  9998
2 40664   0.0322  96.6306 0002580 304.1209  28.0218  1.00272586 14280
METEOSAT-11 (MSG-4)     
1 40732U 15034A   19106.85694706 -.00000025  00000-0  00000-0 0  9999
2 40732   0.8803 219.2576 0000725 148.1579 145.4698  1.00274459 13786
STAR ONE C4             
1 40733U 15034B   19106.41230576 -.00000286  00000-0  00000-0 0  9992
2 40733   0.0297  50.2216 0003047 333.3231 259.1486  1.00271471 13771
WGS F7 (USA 263)        
1 40746U 15036A   19106.89192866 -.00000004  00000-0  00000-0 0  9997
2 40746   0.0118 256.1801 0000092 152.7027 291.9348  1.00272365 13647
INTELSAT 34 (IS-34)     
1 40874U 15039A   19106.84595535 -.00000307  00000-0  00000-0 0  9993
2 40874   0.0222 230.3131 0000475  42.5029 180.9182  1.00266843 13410
EUTELSAT 8 WEST B       
1 40875U 15039B   19106.85546405 -.00000087  00000-0  00000-0 0  9992
2 40875   0.0704   0.2659 0003318  44.2413 100.1564  1.00271761 13435
GSAT-6                  
1 40880U 15041A   19106.87360913 -.00000187  00000-0  00000-0 0  9992
2 40880   0.0599  99.4527 0006023 187.7341 315.0279  1.00273640 13399
INMARSAT 5-F3           
1 40882U 15042A   19106.82109312  .00000028  00000-0  00000-0 0  9997
2 40882   0.0187 206.5392 0000594 242.5061 230.8266  1.00269748 13317
MUOS-4                  
1 40887U 15044A   19106.87186441 -.00000118  00000-0  00000-0 0  9998
2 40887   3.4600 335.9529 0058069   2.4042 255.1773  1.00271797 13310
TJS-1                   
1 40892U 15046A   19106.88791581 -.00000178  00000-0  10000-3 0  9994
2 40892   0.0820 111.3913 0003390 303.8390 264.1793  1.00270595 13291
EXPRESS-AM8             
1 40895U 15048A   19106.85424275 -.00000133  00000-0  00000-0 0  9996
2 40895   0.0167 317.9293 0001192 152.7433  27.5408  1.00271575 13125
BD-20                   
1 40938U 15053A   19106.97384083 -.00000138  00000-0  00000-0 0  9990
2 40938  53.2493 289.0891 0048052 179.7788 183.0308  1.00278930 13114
SKY MUSTER (NBN1A)      
1 40940U 15054A   19106.88503703 -.00000301  00000-0  00000-0 0  9998
2 40940   0.0112 254.3708 0001912 126.4158 282.7897  1.00270327 13034
ARSAT 2                 
1 40941U 15054B   19106.84089567 -.00000246  00000-0  00000-0 0  9990
2 40941   0.0121 209.7079 0001622 179.8955  36.7890  1.00270530 13064
MORELOS 3               
1 40946U 15056A   19106.69084997 -.00000073  00000-0  00000-0 0  9990
2 40946   5.4844 328.1524 0000836 356.7114  15.2709  1.00272945 13030
APSTAR 9                
1 40982U 15059A   19106.88538597 -.00000287  00000-0  00000-0 0  9991
2 40982   0.0165 196.8044 0001438 177.3917 291.2830  1.00271842 12889
TURKSAT 4B              
1 40984U 15060A   19106.57988590  .00000093  00000-0  00000-0 0  9997
2 40984   0.0356  67.6311 0002289 305.7962  89.7600  1.00272790 12863
CHINASAT 2C (ZX 2C)     
1 41021U 15063A   19106.87762197 -.00000346  00000-0  00000-0 0  9991
2 41021   0.0353 311.8596 0003238  74.5045 237.7216  1.00271553 12752
GSAT-15                 
1 41028U 15065A   19106.93507226 -.00000280  00000-0  00000-0 0  9994
2 41028   0.0558 108.8771 0002372 280.9813 245.0620  1.00273653 12595
BADR-7 (ARABSAT-6B)     
1 41029U 15065B   19106.86218122  .00000123  00000-0  00000-0 0  9996
2 41029   0.0576 262.0434 0002321 350.9195 288.1366  1.00274529 12510
LAOSAT 1                
1 41034U 15067A   19106.87738785 -.00000365  00000-0  00000-0 0  9996
2 41034   0.0105  73.4966 0002519 284.0054 291.5931  1.00267588 12612
TELSTAR 12V             
1 41036U 15068A   19105.63368388 -.00000139  00000-0  00000+0 0  9998
2 41036   0.0207 144.3435 0001023 250.8297  21.4528  1.00272958 12467
CHINASAT 1C (ZX 1C)     
1 41103U 15073A   19106.94505530 -.00000171  00000-0  00000-0 0  9993
2 41103   0.6257  96.5131 0003132 231.0041 298.9506  1.00270784 12412
ELEKTRO-L 2             
1 41105U 15074A   19106.94392124 -.00000117  00000-0  00000-0 0  9999
2 41105   0.2111 116.5485 0002199 286.4701 217.5119  1.00271536 12269
COSMOS 2513             
1 41121U 15075A   19106.87299846 -.00000160  00000-0  00000-0 0  9995
2 41121   0.0599 104.7544 0003083 289.9184 204.5647  1.00271094 12346
EXPRESS-AMU1            
1 41191U 15082A   19106.69998743  .00000134  00000-0  00000-0 0  9992
2 41191   0.0250 117.5788 0002805 250.7549 124.3002  1.00273713 12020
GAOFEN 4                
1 41194U 15083A   19106.33868711 -.00000356  00000-0  00000-0 0  9995
2 41194   0.0557 135.9886 0001942  51.8256 243.9918  1.00269254 12234
